OBJECT_NAME,OBJECT_ID,EPOCH,MEAN_MOTION,ECCENTRICITY,INCLINATION,RA_OF_ASC_NODE,ARG_OF_PERICENTER,MEAN_ANOMALY,EPHEMERIS_TYPE,CLASSIFICATION_TYPE,NORAD_CAT_ID,ELEMENT_SET_NO,REV_AT_EPOCH,BSTAR,MEAN_MOTION_DOT,MEAN_MOTION_DDOT
IRIDIUM 135,2017-083A,2026-06-17T10:20:07.208736,14.34217346,.0002065,86.3960,321.9136,91.5205,268.6228,0,U,43070,999,44418,-.9670891E-5,-.7E-7,0
IRIDIUM 138,2017-083B,2026-06-17T10:56:39.139584,14.34217852,.00023218,86.3978,321.5984,87.1610,272.9851,0,U,43071,999,44417,.33642612E-4,.114E-5,0
IRIDIUM 116,2017-083C,2026-06-17T11:51:27.113184,14.34217678,.00018782,86.3959,321.8731,99.3926,260.7482,0,U,43072,999,44421,-.2827643E-5,.12E-6,0
IRIDIUM 130,2017-083D,2026-06-17T11:05:46.925088,14.34218795,.00019419,86.3971,322.1614,92.3562,267.7857,0,U,43073,999,44415,.34854928E-4,.117E-5,0
IRIDIUM 151,2017-083E,2026-06-17T12:09:43.206912,14.34217359,.0002052,86.3961,321.9256,93.2453,266.8977,0,U,43074,999,44418,-.9038756E-5,-.6E-7,0
IRIDIUM 134,2017-083F,2026-06-17T11:24:03.195072,14.34217125,.00019978,86.3962,321.9468,91.6063,268.5362,0,U,43075,999,44414,-.23802623E-4,-.47E-6,0
IRIDIUM 137,2017-083G,2026-06-17T11:42:19.152288,14.34217665,.00021658,86.3965,322.0344,104.4329,255.7107,0,U,43076,999,44421,-.206873E-5,.14E-6,0
IRIDIUM 141,2017-083H,2026-06-17T11:33:11.134368,14.34217849,.00022328,86.3963,321.8674,91.1630,268.9822,0,U,43077,999,44421,.2520451E-5,.27E-6,0
IRIDIUM 153,2017-083J,2026-06-17T10:24:19.456992,14.34217598,.00022475,86.3961,290.3677,89.7108,270.4345,0,U,43078,999,44531,.1067869E-5,.23E-6,0
IRIDIUM 131,2017-083K,2026-06-17T11:14:55.062240,14.34217220,.00021978,86.3969,322.0586,91.5571,268.5877,0,U,43079,999,44414,.21538928E-4,.8E-6,0
IRIDIUM 144,2018-030A,2026-06-17T08:52:59.377152,14.34216936,.00020984,86.3958,290.3232,97.3138,262.8296,0,U,43249,999,43016,.49661809E-4,.159E-5,0
IRIDIUM 149,2018-030B,2026-06-17T09:02:07.459008,14.34217404,.00021362,86.3954,290.2879,93.8441,266.2999,0,U,43250,999,43018,-.4659236E-5,.7E-7,0
IRIDIUM 157,2018-030C,2026-06-17T09:29:31.463520,14.34217246,.00020867,86.3956,290.3332,94.2244,265.9191,0,U,43251,999,43016,-.15920613E-4,-.25E-6,0
IRIDIUM 140,2018-030D,2026-06-17T09:56:55.441248,14.34217406,.00020326,86.3955,290.3377,94.0171,266.1257,0,U,43252,999,43022,-.6489168E-5,.2E-7,0
IRIDIUM 145,2018-030E,2026-06-17T09:38:39.424416,14.34217462,.00020096,86.3959,290.3151,101.2025,258.9397,0,U,43253,999,43015,.3369803E-5,.29E-6,0
IRIDIUM 146,2018-030F,2026-06-17T09:11:15.258336,14.34218648,.00021177,86.3959,290.3353,96.8249,263.3187,0,U,43254,999,43016,.32451221E-4,.111E-5,0
IRIDIUM 148,2018-030G,2026-06-17T08:25:35.461632,14.34217553,.00021489,86.3957,290.3919,96.3812,263.7628,0,U,43255,999,43019,-.1591646E-5,.15E-6,0
IRIDIUM 142,2018-030H,2026-06-17T09:20:23.459424,14.34217326,.00021204,86.3956,290.2647,98.7749,261.3687,0,U,43256,999,43016,-.147468E-6,.19E-6,0
IRIDIUM 150,2018-030J,2026-06-17T10:15:11.433024,14.34217685,.00021487,86.3960,290.3652,93.7691,266.3750,0,U,43257,999,43019,.6245829E-5,.37E-6,0
IRIDIUM 143,2018-030K,2026-06-17T09:47:47.431104,14.34217262,.0001982,86.3960,290.4659,96.7770,263.3651,0,U,43258,999,43012,-.9912404E-5,-.8E-7,0
IRIDIUM 161,2018-047C,2026-06-17T07:23:01.529376,14.43278511,.0002593,86.4482,88.4206,84.4866,275.6631,0,U,43478,999,42515,.70713692E-4,.258E-5,0
IRIDIUM 152,2018-047D,2026-06-17T07:28:02.348256,14.34216980,.00023482,86.3957,88.2805,82.8419,277.3044,0,U,43479,999,42250,.30775373E-4,.106E-5,0
IRIDIUM 147,2018-047E,2026-06-17T07:37:10.281504,14.34217509,.00020275,86.3959,88.2829,85.6373,274.5054,0,U,43480,999,42250,-.2115274E-5,.14E-6,0
IRIDIUM 110,2018-047F,2026-06-17T07:46:18.389280,14.34217275,.00025672,86.3961,88.3722,82.0755,278.0732,0,U,43481,999,42249,.23758158E-4,.86E-6,0
IRIDIUM 162,2018-047G,2026-06-17T07:13:57.796032,14.43281687,.00022674,86.4482,88.3145,82.4060,277.7398,0,U,43482,999,42514,.74671259E-4,.271E-5,0
IRIDIUM 160,2018-061A,2026-06-17T14:50:38.481216,14.34217882,.00022727,86.3962,56.6172,85.7486,274.3970,0,U,43569,999,41343,.964224E-5,.47E-6,0
IRIDIUM 166,2018-061B,2026-06-17T02:03:26.478432,14.34217524,.00020087,86.3959,56.7902,86.5927,273.5499,0,U,43570,999,41338,-.5539347E-5,.4E-7,0
IRIDIUM 158,2018-061C,2026-06-17T14:41:30.432192,14.34218062,.00021735,86.3960,56.5803,82.3959,277.7484,0,U,43571,999,41342,.1853182E-4,.72E-6,0
IRIDIUM 165,2018-061D,2026-06-17T03:34:46.432992,14.34217452,.00020611,86.3963,56.8203,86.7148,273.4284,0,U,43572,999,41338,.20752802E-4,.78E-6,0
IRIDIUM 155,2018-061E,2026-06-17T14:23:14.487936,14.34217665,.0002115,86.3958,56.5009,82.8010,277.3426,0,U,43573,999,41341,.6317247E-5,.37E-6,0
